STARLINK-30595
1 58111U 23161Q   25355.46864395  .00000785  00000+0  38640-4 0  9998
2 58111  53.1593 169.0034 0001143  95.6737 264.4394 15.30189778122447